[{"norad_id":"56711","company":"ONEWEB","tle_line2":"2 56711  87.9058 300.4206 0002007  84.0815 276.0544 13.16593073104460","launch_date":"2023-05-20","type":"LEO","tle_line1":"1 56711U 23068B   25173.61100737  .00000052  00000+0  10127-3 0  9992","satellite_name":"ONEWEB-0668"},{"norad_id":"56712","company":"ONEWEB","tle_line2":"2 56712  87.9048 300.4519 0001651 113.0995 247.0310 13.16593984104384","launch_date":"2023-05-20","type":"LEO","tle_line1":"1 56712U 23068C   25173.59123332  .00000033  00000+0  52189-4 0  9990","satellite_name":"ONEWEB-0676"},{"norad_id":"56713","company":"ONEWEB","tle_line2":"2 56713  87.9251 346.0956 0001538  90.6322 269.4988 13.20773730102314","launch_date":"2023-05-20","type":"LEO","tle_line1":"1 56713U 23068D   25173.41772036  .00000104  00000+0  22279-3 0  9998","satellite_name":"ONEWEB-0677"},{"norad_id":"56714","company":"ONEWEB","tle_line2":"2 56714  87.9057 330.9458 0002007 104.9552 255.1801 13.15547612102659","launch_date":"2023-05-20","type":"LEO","tle_line1":"1 56714U 23068E   25173.18065434  .00000106  00000+0  24882-3 0  9994","satellite_name":"ONEWEB-0678"},{"norad_id":"56715","company":"ONEWEB","tle_line2":"2 56715  87.9046 300.4348 0001426  89.3755 270.7539 13.16594632104415","launch_date":"2023-05-20","type":"LEO","tle_line1":"1 56715U 23068F   25173.63633734 -.00000273  00000+0 -74671-3 0  9997","satellite_name":"ONEWEB-0679"},{"norad_id":"56716","company":"ONEWEB","tle_line2":"2 56716  87.9243 315.7769 0001879  78.7955 281.3390 13.21810361103538","launch_date":"2023-05-20","type":"LEO","tle_line1":"1 56716U 23068G   25173.16087725 -.00001617  00000+0 -39494-2 0  9995","satellite_name":"ONEWEB-0680"},{"norad_id":"56717","company":"ONEWEB","tle_line2":"2 56717  87.9261 315.8164 0001022 116.3555 243.7684 13.21824662103519","launch_date":"2023-05-20","type":"LEO","tle_line1":"1 56717U 23068H   25173.09541810 -.00000051  00000+0 -15378-3 0  9995","satellite_name":"ONEWEB-0681"},{"norad_id":"56718","company":"ONEWEB","tle_line2":"2 56718  87.9056 331.0322 0001750  78.2301 281.9025 13.15548961102083","launch_date":"2023-05-20","type":"LEO","tle_line1":"1 56718U 23068J   25172.90258539  .00000215  00000+0  53632-3 0  9993","satellite_name":"ONEWEB-0682"}]